start=new Date('2023-03-19T00:00:00.000Z').valueOf();
sats=[{"NORAD_CAT_ID":"46142","REV_AT_EPOCH":"14219","TLE_LINE2":"2 46142  53.0518 157.2715 0001469  97.9449 262.1706 15.06425011142197","PERIAPSIS":"546.120","TIME_SYSTEM":"UTC","MEAN_MOTION_DOT":"0.00023185","OBJECT_NAME":"STARLINK-1597","APOAPSIS":"548.154","ELEMENT_SET_NO":"999","BSTAR":"0.00156920000000","EPHEMERIS_TYPE":"0","PERIOD":"95.591","REF_FRAME":"TEME","LAUNCH_DATE":"2020-08-18","RCS_SIZE":"LARGE","GP_ID":"228400356","CENTER_NAME":"EARTH","COUNTRY_CODE":"US","SEMIMAJOR_AXIS":"6925.272","TLE_LINE1":"1 46142U 20057AB  23077.48468704  .00023185  00000-0  15692-2 0  9995","MEAN_ANOMALY":"262.1706","MEAN_ELEMENT_THEORY":"SGP4","SITE":"AFETR","OBJECT_TYPE":"PAYLOAD","OBJECT_ID":"2020-057AB","ECCENTRICITY":"0.00014690","MEAN_MOTION":"15.06425011","INCLINATION":"53.0518","MEAN_MOTION_DDOT":"0.0000000000000","DECAY_DATE":null,"FILE":"3864479","EPOCH":"2023-03-18T11:37:56.960256","CLASSIFICATION_TYPE":"U","ARG_OF_PERICENTER":"97.9449","RA_OF_ASC_NODE":"157.2715"},{"REV_AT_EPOCH":"13078","NORAD_CAT_ID":"46144","TLE_LINE2":"2 46144  53.0535 135.6442 0001555  89.6234 270.4934 15.06438137130781","PERIAPSIS":"546.020","TIME_SYSTEM":"UTC","OBJECT_NAME":"STARLINK-1606","APOAPSIS":"548.174","MEAN_MOTION_DOT":"0.00019017","BSTAR":"0.00129080000000","EPHEMERIS_TYPE":"0","ELEMENT_SET_NO":"999","REF_FRAME":"TEME","PERIOD":"95.590","LAUNCH_DATE":"2020-08-18","RCS_SIZE":"LARGE","SEMIMAJOR_AXIS":"6925.232","COUNTRY_CODE":"US","GP_ID":"228401099","CENTER_NAME":"EARTH","TLE_LINE1":"1 46144U 20057AD  23077.84772957  .00019017  00000-0  12908-2 0  9991","MEAN_ANOMALY":"270.4934","MEAN_ELEMENT_THEORY":"SGP4","OBJECT_TYPE":"PAYLOAD","SITE":"AFETR","OBJECT_ID":"2020-057AD","ECCENTRICITY":"0.00015550","MEAN_MOTION":"15.06438137","INCLINATION":"53.0535","MEAN_MOTION_DDOT":"0.0000000000000","DECAY_DATE":null,"EPOCH":"2023-03-18T20:20:43.834848","FILE":"3864479","CLASSIFICATION_TYPE":"U","ARG_OF_PERICENTER":"89.6234","RA_OF_ASC_NODE":"135.6442"},{"ECCENTRICITY":"0.00015540","OBJECT_ID":"2020-057AF","OBJECT_TYPE":"PAYLOAD","SITE":"AFETR","MEAN_ELEMENT_THEORY":"SGP4","TLE_LINE1":"1 46146U 20057AF  23077.62843075  .00006549  00000-0  45796-3 0  9997","MEAN_ANOMALY":"264.4469","SEMIMAJOR_AXIS":"6925.308","GP_ID":"228401354","COUNTRY_CODE":"US","CENTER_NAME":"EARTH","RA_OF_ASC_NODE":"156.6244","ARG_OF_PERICENTER":"95.6697","CLASSIFICATION_TYPE":"U","EPOCH":"2023-03-18T15:04:56.416800","FILE":"3864479","MEAN_MOTION_DDOT":"0.0000000000000","DECAY_DATE":null,"INCLINATION":"53.0523","MEAN_MOTION":"15.06413216","OBJECT_NAME":"STARLINK-1608","APOAPSIS":"548.249","MEAN_MOTION_DOT":"0.00006549","TIME_SYSTEM":"UTC","PERIAPSIS":"546.097","TLE_LINE2":"2 46146  53.0523 156.6244 0001554  95.6697 264.4469 15.06413216142221","NORAD_CAT_ID":"46146","REV_AT_EPOCH":"14222","RCS_SIZE":"LARGE","LAUNCH_DATE":"2020-08-18","REF_FRAME":"TEME","PERIOD":"95.591","BSTAR":"0.00045796000000","EPHEMERIS_TYPE":"0","ELEMENT_SET_NO":"999"},{"MEAN_MOTION_DOT":"0.00044759","OBJECT_NAME":"STARLINK-1611","APOAPSIS":"548.150","PERIAPSIS":"545.854","TIME_SYSTEM":"UTC","REV_AT_EPOCH":"14345","NORAD_CAT_ID":"46147","TLE_LINE2":"2 46147  53.0522 157.3038 0001658  74.1829 285.9342 15.06469094143453","RCS_SIZE":"LARGE","LAUNCH_DATE":"2020-08-18","ELEMENT_SET_NO":"999","BSTAR":"0.00299910000000","EPHEMERIS_TYPE":"0","PERIOD":"95.588","REF_FRAME":"TEME","ECCENTRICITY":"0.00016580","SITE":"AFETR","OBJECT_TYPE":"PAYLOAD","OBJECT_ID":"2020-057AG","MEAN_ELEMENT_THEORY":"SGP4","GP_ID":"228400108","CENTER_NAME":"EARTH","COUNTRY_CODE":"US","SEMIMAJOR_AXIS":"6925.137","TLE_LINE1":"1 46147U 20057AG  23077.47731690  .00044759  00000-0  29991-2 0  9993","MEAN_ANOMALY":"285.9342","ARG_OF_PERICENTER":"74.1829","RA_OF_ASC_NODE":"157.3038","FILE":"3864479","EPOCH":"2023-03-18T11:27:20.180160","CLASSIFICATION_TYPE":"U","INCLINATION":"53.0522","DECAY_DATE":null,"MEAN_MOTION_DDOT":"0.0000000000000","MEAN_MOTION":"15.06469094"},{"REV_AT_EPOCH":"14253","NORAD_CAT_ID":"46148","TLE_LINE2":"2 46148  53.0516 135.4927 0000971  87.0506 273.0594 15.06423293142539","PERIAPSIS":"546.470","TIME_SYSTEM":"UTC","OBJECT_NAME":"STARLINK-1616","APOAPSIS":"547.815","MEAN_MOTION_DOT":"0.00020277","BSTAR":"0.00137540000000","EPHEMERIS_TYPE":"0","ELEMENT_SET_NO":"999","REF_FRAME":"TEME","PERIOD":"95.591","LAUNCH_DATE":"2020-08-18","RCS_SIZE":"LARGE","SEMIMAJOR_AXIS":"6925.277","CENTER_NAME":"EARTH","GP_ID":"228399856","COUNTRY_CODE":"US","TLE_LINE1":"1 46148U 20057AH  23077.88089588  .00020277  00000-0  13754-2 0  9990","MEAN_ANOMALY":"273.0594","MEAN_ELEMENT_THEORY":"SGP4","OBJECT_TYPE":"PAYLOAD","SITE":"AFETR","OBJECT_ID":"2020-057AH","ECCENTRICITY":"0.00009710","MEAN_MOTION":"15.06423293","INCLINATION":"53.0516","MEAN_MOTION_DDOT":"0.0000000000000","DECAY_DATE":null,"EPOCH":"2023-03-18T21:08:29.404032","FILE":"3864479","CLASSIFICATION_TYPE":"U","ARG_OF_PERICENTER":"87.0506","RA_OF_ASC_NODE":"135.4927"},{"ECCENTRICITY":"0.00015660","SITE":"AFETR","OBJECT_TYPE":"PAYLOAD","OBJECT_ID":"2020-057AJ","MEAN_ELEMENT_THEORY":"SGP4","GP_ID":"228400600","CENTER_NAME":"EARTH","COUNTRY_CODE":"US","SEMIMAJOR_AXIS":"6925.346","MEAN_ANOMALY":"272.3797","TLE_LINE1":"1 46149U 20057AJ  23077.89468778  .00007311  00000-0  50919-3 0  9993","ARG_OF_PERICENTER":"87.7371","RA_OF_ASC_NODE":"135.4188","FILE":"3864479","EPOCH":"2023-03-18T21:28:21.024192","CLASSIFICATION_TYPE":"U","INCLINATION":"53.0503","DECAY_DATE":null,"MEAN_MOTION_DDOT":"0.0000000000000","MEAN_MOTION":"15.06400732","MEAN_MOTION_DOT":"0.00007311","OBJECT_NAME":"STARLINK-1620","APOAPSIS":"548.296","PERIAPSIS":"546.127","TIME_SYSTEM":"UTC","REV_AT_EPOCH":"14381","NORAD_CAT_ID":"46149","TLE_LINE2":"2 46149  53.0503 135.4188 0001566  87.7371 272.3797 15.06400732143815","RCS_SIZE":"LARGE","LAUNCH_DATE":"2020-08-18","ELEMENT_SET_NO":"999","BSTAR":"0.00050919000000","EPHEMERIS_TYPE":"0","PERIOD":"95.592","REF_FRAME":"TEME"},{"TLE_LINE2":"2 46150  53.0519 157.2387 0001273  99.6993 260.4139 15.06425464142203","REV_AT_EPOCH":"14220","NORAD_CAT_ID":"46150","MEAN_MOTION_DOT":"0.00026543","APOAPSIS":"548.017","OBJECT_NAME":"STARLINK-1629","TIME_SYSTEM":"UTC","PERIAPSIS":"546.254","PERIOD":"95.591","REF_FRAME":"TEME","ELEMENT_SET_NO":"999","EPHEMERIS_TYPE":"0","BSTAR":"0.00179290000000","RCS_SIZE":"LARGE","LAUNCH_DATE":"2020-08-18","MEAN_ELEMENT_THEORY":"SGP4","MEAN_ANOMALY":"260.4139","TLE_LINE1":"1 46150U 20057AK  23077.49205806  .00026543  00000-0  17929-2 0  9993","GP_ID":"228400854","COUNTRY_CODE":"US","CENTER_NAME":"EARTH","SEMIMAJOR_AXIS":"6925.271","ECCENTRICITY":"0.00012730","OBJECT_ID":"2020-057AK","SITE":"AFETR","OBJECT_TYPE":"PAYLOAD","DECAY_DATE":null,"MEAN_MOTION_DDOT":"0.0000000000000","INCLINATION":"53.0519","MEAN_MOTION":"15.06425464","RA_OF_ASC_NODE":"157.2387","ARG_OF_PERICENTER":"99.6993","CLASSIFICATION_TYPE":"U","FILE":"3864479","EPOCH":"2023-03-18T11:48:33.816384"},{"ECCENTRICITY":"0.00010390","OBJECT_ID":"2020-057AL","OBJECT_TYPE":"PAYLOAD","SITE":"AFETR","MEAN_ELEMENT_THEORY":"SGP4","TLE_LINE1":"1 46151U 20057AL  23077.86615998  .00026151  00000-0  17657-2 0  9995","MEAN_ANOMALY":"281.6908","SEMIMAJOR_AXIS":"6925.199","GP_ID":"228399608","CENTER_NAME":"EARTH","COUNTRY_CODE":"US","RA_OF_ASC_NODE":"135.5588","ARG_OF_PERICENTER":"78.4197","CLASSIFICATION_TYPE":"U","FILE":"3864479","EPOCH":"2023-03-18T20:47:16.222272","MEAN_MOTION_DDOT":"0.0000000000000","DECAY_DATE":null,"INCLINATION":"53.0531","MEAN_MOTION":"15.06448758","OBJECT_NAME":"STARLINK-1631","APOAPSIS":"547.784","MEAN_MOTION_DOT":"0.00026151","TIME_SYSTEM":"UTC","PERIAPSIS":"546.345","TLE_LINE2":"2 46151  53.0531 135.5588 0001039  78.4197 281.6908 15.06448758142537","REV_AT_EPOCH":"14253","NORAD_CAT_ID":"46151","RCS_SIZE":"LARGE","LAUNCH_DATE":"2020-08-18","REF_FRAME":"TEME","PERIOD":"95.589","EPHEMERIS_TYPE":"0","BSTAR":"0.00176570000000","ELEMENT_SET_NO":"999"},{"SITE":"AFETR","OBJECT_TYPE":"PAYLOAD","OBJECT_ID":"2020-057AM","ECCENTRICITY":"0.00013140","CENTER_NAME":"EARTH","GP_ID":"228400357","COUNTRY_CODE":"US","SEMIMAJOR_AXIS":"6925.224","MEAN_ANOMALY":"270.0400","TLE_LINE1":"1 46152U 20057AM  23077.91497443  .00019171  00000-0  13010-2 0  9998","MEAN_ELEMENT_THEORY":"SGP4","EPOCH":"2023-03-18T21:57:33.790752","FILE":"3864479","CLASSIFICATION_TYPE":"U","ARG_OF_PERICENTER":"90.0740","RA_OF_ASC_NODE":"155.3309","MEAN_MOTION":"15.06440527","INCLINATION":"53.0545","MEAN_MOTION_DDOT":"0.0000000000000","DECAY_DATE":null,"PERIAPSIS":"546.179","TIME_SYSTEM":"UTC","MEAN_MOTION_DOT":"0.00019171","OBJECT_NAME":"STARLINK-1634","APOAPSIS":"547.999","NORAD_CAT_ID":"46152","REV_AT_EPOCH":"14226","TLE_LINE2":"2 46152  53.0545 155.3309 0001314  90.0740 270.0400 15.06440527142269","LAUNCH_DATE":"2020-08-18","RCS_SIZE":"LARGE","ELEMENT_SET_NO":"999","EPHEMERIS_TYPE":"0","BSTAR":"0.00130100000000","PERIOD":"95.590","REF_FRAME":"TEME"},{"REV_AT_EPOCH":"14253","NORAD_CAT_ID":"46153","TLE_LINE2":"2 46153  53.0535 135.4777 0001549  75.9084 284.2077 15.06438026142538","PERIAPSIS":"546.024","TIME_SYSTEM":"UTC","MEAN_MOTION_DOT":"0.00021736","APOAPSIS":"548.170","OBJECT_NAME":"STARLINK-1636","ELEMENT_SET_NO":"999","BSTAR":"0.00147210000000","EPHEMERIS_TYPE":"0","PERIOD":"95.590","REF_FRAME":"TEME","LAUNCH_DATE":"2020-08-18","RCS_SIZE":"LARGE","GP_ID":"228401100","COUNTRY_CODE":"US","CENTER_NAME":"EARTH","SEMIMAJOR_AXIS":"6925.232","TLE_LINE1":"1 46153U 20057AN  23077.88458671  .00021736  00000-0  14721-2 0  9995","MEAN_ANOMALY":"284.2077","MEAN_ELEMENT_THEORY":"SGP4","SITE":"AFETR","OBJECT_TYPE":"PAYLOAD","OBJECT_ID":"2020-057AN","ECCENTRICITY":"0.00015490","MEAN_MOTION":"15.06438026","INCLINATION":"53.0535","MEAN_MOTION_DDOT":"0.0000000000000","DECAY_DATE":null,"FILE":"3864479","EPOCH":"2023-03-18T21:13:48.291744","CLASSIFICATION_TYPE":"U","ARG_OF_PERICENTER":"75.9084","RA_OF_ASC_NODE":"135.4777"}];
